{
    "type": "FeatureCollection",
    "name": "strategic_infrastructure",
    "features": [
        {
            "type": "Feature",
            "properties": {
                "name": "Mekorot Headquarters",
                "category": "National Supplier",
                "city": "Tel Aviv",
                "address": "Lincoln 9, Tel Aviv",
                "security_profile": "Main Hub - CISO Level"
            },
            "geometry": {
                "type": "Point",
                "coordinates": [
                    34.7876,
                    32.0655
                ]
            }
        },
        {
            "type": "Feature",
            "properties": {
                "name": "Sorek Desalination Plant",
                "category": "Desalination",
                "city": "Sorek",
                "address": "31.905, 34.739",
                "security_profile": "Critical OT - Private/Public"
            },
            "geometry": {
                "type": "Point",
                "coordinates": [
                    34.739,
                    31.905
                ]
            }
        },
        {
            "type": "Feature",
            "properties": {
                "name": "Hadera Desalination Plant",
                "category": "Desalination",
                "city": "Hadera",
                "address": "32.467, 34.881",
                "security_profile": "Critical OT - Highly Automated"
            },
            "geometry": {
                "type": "Point",
                "coordinates": [
                    34.881,
                    32.467
                ]
            }
        },
        {
            "type": "Feature",
            "properties": {
                "name": "Ashkelon Desalination Plant",
                "category": "Desalination",
                "city": "Ashkelon",
                "address": "31.633, 34.516",
                "security_profile": "High Risk - Proximity to Gaza"
            },
            "geometry": {
                "type": "Point",
                "coordinates": [
                    34.516,
                    31.633
                ]
            }
        },
        {
            "type": "Feature",
            "properties": {
                "name": "Ashdod Desalination Plant",
                "category": "Desalination",
                "city": "Ashdod",
                "address": "31.838, 34.659",
                "security_profile": "Strategic National Infrastructure"
            },
            "geometry": {
                "type": "Point",
                "coordinates": [
                    34.659,
                    31.838
                ]
            }
        },
        {
            "type": "Feature",
            "properties": {
                "name": "Palmachim Desalination",
                "category": "Desalination",
                "city": "Palmachim",
                "address": "31.928, 34.701",
                "security_profile": "Critical Asset - Private"
            },
            "geometry": {
                "type": "Point",
                "coordinates": [
                    34.701,
                    31.928
                ]
            }
        },
        {
            "type": "Feature",
            "properties": {
                "name": "Shafdan (WWTP)",
                "category": "Wastewater",
                "city": "Rishon LeZion",
                "address": "31.978, 34.734",
                "security_profile": "Industrial SCADA - Critical"
            },
            "geometry": {
                "type": "Point",
                "coordinates": [
                    34.734,
                    31.978
                ]
            }
        },
        {
            "type": "Feature",
            "properties": {
                "name": "Mei Avivim (Tagid)",
                "category": "Large Corporation",
                "city": "Tel Aviv",
                "address": "Menachem Begin 37, Tel Aviv",
                "security_profile": "Large IT/OT Budget"
            },
            "geometry": {
                "type": "Point",
                "coordinates": [
                    34.781,
                    32.063
                ]
            }
        },
        {
            "type": "Feature",
            "properties": {
                "name": "HaGihon (Tagid)",
                "category": "Large Corporation",
                "city": "Jerusalem",
                "address": "Ha-Uman 28, Jerusalem",
                "security_profile": "High Complexity - Strategic"
            },
            "geometry": {
                "type": "Point",
                "coordinates": [
                    35.215,
                    31.750
                ]
            }
        },
        {
            "type": "Feature",
            "properties": {
                "name": "Mei Shikma (Tagid)",
                "category": "Medium Corporation",
                "city": "Holon",
                "address": "Ha-Orghim 5, Holon",
                "security_profile": "Regional Cluster"
            },
            "geometry": {
                "type": "Point",
                "coordinates": [
                    34.795,
                    32.015
                ]
            }
        },
        {
            "type": "Feature",
            "properties": {
                "name": "Mei Carmel (Tagid)",
                "category": "Large Corporation",
                "city": "Haifa",
                "address": "Jaffa 157, Haifa",
                "security_profile": "Industrial Port City Influence"
            },
            "geometry": {
                "type": "Point",
                "coordinates": [
                    34.985,
                    32.825
                ]
            }
        },
        {
            "type": "Feature",
            "properties": {
                "name": "Mei Sheva (Tagid)",
                "category": "Large Corporation",
                "city": "Be'er Sheva",
                "address": "Ha-Avot 2, Be'er Sheva",
                "security_profile": "Southern Hub"
            },
            "geometry": {
                "type": "Point",
                "coordinates": [
                    34.785,
                    31.238
                ]
            }
        },
        {
            "type": "Feature",
            "properties": {
                "name": "Ein Afek (Tagid)",
                "category": "Small Corporation",
                "city": "Kiryat Bialik",
                "address": "Ha-Amal 12, Kiryat Bialik",
                "security_profile": "Price Sensitive - Potential Lead"
            },
            "geometry": {
                "type": "Point",
                "coordinates": [
                    35.093,
                    32.845
                ]
            }
        },
        {
            "type": "Feature",
            "properties": {
                "name": "Mei Raanana (Tagid)",
                "category": "Medium Corporation",
                "city": "Raanana",
                "address": "Ha-Ta'asiya 10, Raanana",
                "security_profile": "Tech-savvy Municipality"
            },
            "geometry": {
                "type": "Point",
                "coordinates": [
                    34.885,
                    32.185
                ]
            }
        }
    ]
}